start=new Date('2021-09-19T00:00:00.000Z').valueOf();
sats=[{"INCLINATION":"53.0549","LAUNCH_DATE":"2020-08-18","COUNTRY_CODE":"US","REF_FRAME":"TEME","RCS_SIZE":"LARGE","OBJECT_NAME":"STARLINK-1593","ECCENTRICITY":"0.00018330","ELEMENT_SET_NO":"999","BSTAR":"0.00005659600000","MEAN_MOTION_DDOT":"0.0000000000000","ARG_OF_PERICENTER":"90.6726","OBJECT_ID":"2020-057C","PERIAPSIS":"545.961","EPOCH":"2021-09-18T16:27:06.522624","SITE":"AFETR","NORAD_CAT_ID":"46119","FILE":"3118781","OBJECT_TYPE":"PAYLOAD","MEAN_MOTION":"15.06394381","APOAPSIS":"548.500","CENTER_NAME":"EARTH","GP_ID":"184974720","MEAN_MOTION_DOT":"0.00000561","SEMIMAJOR_AXIS":"6925.366","REV_AT_EPOCH":"6119","DECAY_DATE":null,"CLASSIFICATION_TYPE":"U","TLE_LINE2":"2 46119  53.0549  87.4642 0001833  90.6726 269.4473 15.06394381 61197","EPHEMERIS_TYPE":"0","TIME_SYSTEM":"UTC","PERIOD":"95.592","RA_OF_ASC_NODE":"87.4642","TLE_LINE1":"1 46119U 20057C   21261.68549216  .00000561  00000-0  56596-4 0  9995","MEAN_ANOMALY":"269.4473","MEAN_ELEMENT_THEORY":"SGP4"},{"TLE_LINE1":"1 46120U 20057D   21261.60440233  .00000611  00000-0  59949-4 0  9999","MEAN_ANOMALY":"281.0323","MEAN_ELEMENT_THEORY":"SGP4","RA_OF_ASC_NODE":"87.8276","TIME_SYSTEM":"UTC","PERIOD":"95.592","CLASSIFICATION_TYPE":"U","DECAY_DATE":null,"EPHEMERIS_TYPE":"0","TLE_LINE2":"2 46120  53.0543  87.8276 0002078  79.0899 281.0323 15.06397272 61202","CENTER_NAME":"EARTH","GP_ID":"184972967","MEAN_MOTION":"15.06397272","APOAPSIS":"548.661","SEMIMAJOR_AXIS":"6925.357","REV_AT_EPOCH":"6120","MEAN_MOTION_DOT":"0.00000611","PERIAPSIS":"545.783","EPOCH":"2021-09-18T14:30:20.361312","SITE":"AFETR","OBJECT_ID":"2020-057D","OBJECT_TYPE":"PAYLOAD","FILE":"3118781","NORAD_CAT_ID":"46120","ECCENTRICITY":"0.00020780","OBJECT_NAME":"STARLINK-1601","MEAN_MOTION_DDOT":"0.0000000000000","ARG_OF_PERICENTER":"79.0899","BSTAR":"0.00005994900000","ELEMENT_SET_NO":"999","LAUNCH_DATE":"2020-08-18","COUNTRY_CODE":"US","REF_FRAME":"TEME","RCS_SIZE":"LARGE","INCLINATION":"53.0543"},{"ELEMENT_SET_NO":"999","BSTAR":"0.00007263700000","MEAN_MOTION_DDOT":"0.0000000000000","ARG_OF_PERICENTER":"84.4926","OBJECT_NAME":"STARLINK-1602","ECCENTRICITY":"0.00014640","FILE":"3118781","NORAD_CAT_ID":"46121","OBJECT_TYPE":"PAYLOAD","OBJECT_ID":"2020-057E","SITE":"AFETR","EPOCH":"2021-09-18T15:20:44.999808","PERIAPSIS":"546.199","INCLINATION":"53.0551","RCS_SIZE":"LARGE","REF_FRAME":"TEME","COUNTRY_CODE":"US","LAUNCH_DATE":"2020-08-18","PERIOD":"95.592","TIME_SYSTEM":"UTC","RA_OF_ASC_NODE":"67.6714","MEAN_ELEMENT_THEORY":"SGP4","MEAN_ANOMALY":"275.6230","TLE_LINE1":"1 46121U 20057E   21261.63940972  .00000801  00000-0  72637-4 0  9998","MEAN_MOTION_DOT":"0.00000801","SEMIMAJOR_AXIS":"6925.348","REV_AT_EPOCH":"6020","APOAPSIS":"548.227","MEAN_MOTION":"15.06400236","CENTER_NAME":"EARTH","GP_ID":"184973218","EPHEMERIS_TYPE":"0","TLE_LINE2":"2 46121  53.0551  67.6714 0001464  84.4926 275.6230 15.06400236 60204","CLASSIFICATION_TYPE":"U","DECAY_DATE":null},{"COUNTRY_CODE":"US","LAUNCH_DATE":"2020-08-18","REF_FRAME":"TEME","RCS_SIZE":"LARGE","INCLINATION":"53.0549","OBJECT_ID":"2020-057F","EPOCH":"2021-09-18T12:22:56.615520","SITE":"AFETR","PERIAPSIS":"546.043","FILE":"3118594","NORAD_CAT_ID":"46122","OBJECT_TYPE":"PAYLOAD","OBJECT_NAME":"STARLINK-1604","ECCENTRICITY":"0.00017130","ELEMENT_SET_NO":"999","BSTAR":"0.00006617200000","MEAN_MOTION_DDOT":"0.0000000000000","ARG_OF_PERICENTER":"90.4505","CLASSIFICATION_TYPE":"U","DECAY_DATE":null,"TLE_LINE2":"2 46122  53.0549  48.2222 0001713  90.4505 269.6680 15.06394843 61724","EPHEMERIS_TYPE":"0","APOAPSIS":"548.416","MEAN_MOTION":"15.06394843","CENTER_NAME":"EARTH","GP_ID":"184946360","MEAN_MOTION_DOT":"0.00000704","REV_AT_EPOCH":"6172","SEMIMAJOR_AXIS":"6925.364","TLE_LINE1":"1 46122U 20057F   21261.51593305  .00000704  00000-0  66172-4 0  9999","MEAN_ELEMENT_THEORY":"SGP4","MEAN_ANOMALY":"269.6680","PERIOD":"95.592","TIME_SYSTEM":"UTC","RA_OF_ASC_NODE":"48.2222"},{"SEMIMAJOR_AXIS":"6925.370","REV_AT_EPOCH":"6177","MEAN_MOTION_DOT":"0.00001420","CENTER_NAME":"EARTH","GP_ID":"184974220","MEAN_MOTION":"15.06392910","APOAPSIS":"548.346","TLE_LINE2":"2 46123  53.0553  47.3956 0001604 102.3282 257.7887 15.06392910 61773","EPHEMERIS_TYPE":"0","DECAY_DATE":null,"CLASSIFICATION_TYPE":"U","RA_OF_ASC_NODE":"47.3956","TIME_SYSTEM":"UTC","PERIOD":"95.593","MEAN_ANOMALY":"257.7887","MEAN_ELEMENT_THEORY":"SGP4","TLE_LINE1":"1 46123U 20057G   21261.70022725  .00001420  00000-0  11426-3 0  9991","INCLINATION":"53.0553","REF_FRAME":"TEME","RCS_SIZE":"LARGE","LAUNCH_DATE":"2020-08-18","COUNTRY_CODE":"US","MEAN_MOTION_DDOT":"0.0000000000000","ARG_OF_PERICENTER":"102.3282","BSTAR":"0.00011426000000","ELEMENT_SET_NO":"999","ECCENTRICITY":"0.00016040","OBJECT_NAME":"STARLINK-1605","OBJECT_TYPE":"PAYLOAD","FILE":"3118781","NORAD_CAT_ID":"46123","PERIAPSIS":"546.124","SITE":"AFETR","EPOCH":"2021-09-18T16:48:19.634400","OBJECT_ID":"2020-057G"},{"TLE_LINE1":"1 46124U 20057H   21261.70760249  .00001153  00000-0  96349-4 0  9993","MEAN_ELEMENT_THEORY":"SGP4","MEAN_ANOMALY":"270.8434","RA_OF_ASC_NODE":"47.3646","PERIOD":"95.593","TIME_SYSTEM":"UTC","CLASSIFICATION_TYPE":"U","DECAY_DATE":null,"TLE_LINE2":"2 46124  53.0558  47.3646 0001795  89.2761 270.8434 15.06390764 60500","EPHEMERIS_TYPE":"0","GP_ID":"184973468","CENTER_NAME":"EARTH","APOAPSIS":"548.485","MEAN_MOTION":"15.06390764","SEMIMAJOR_AXIS":"6925.377","REV_AT_EPOCH":"6050","MEAN_MOTION_DOT":"0.00001153","EPOCH":"2021-09-18T16:58:56.855136","SITE":"AFETR","PERIAPSIS":"545.999","OBJECT_ID":"2020-057H","OBJECT_TYPE":"PAYLOAD","NORAD_CAT_ID":"46124","FILE":"3118781","ECCENTRICITY":"0.00017950","OBJECT_NAME":"STARLINK-1614","ARG_OF_PERICENTER":"89.2761","MEAN_MOTION_DDOT":"0.0000000000000","BSTAR":"0.00009634900000","ELEMENT_SET_NO":"999","COUNTRY_CODE":"US","LAUNCH_DATE":"2020-08-18","RCS_SIZE":"LARGE","REF_FRAME":"TEME","INCLINATION":"53.0558"},{"INCLINATION":"53.0535","COUNTRY_CODE":"US","LAUNCH_DATE":"2020-08-18","RCS_SIZE":"LARGE","REF_FRAME":"TEME","OBJECT_NAME":"STARLINK-1618","ECCENTRICITY":"0.00019770","ELEMENT_SET_NO":"999","MEAN_MOTION_DDOT":"0.0000000000000","BSTAR":"-0.00005676500000","ARG_OF_PERICENTER":"87.5254","OBJECT_ID":"2020-057J","SITE":"AFETR","EPOCH":"2021-09-18T14:56:52.224288","PERIAPSIS":"545.866","FILE":"3118781","NORAD_CAT_ID":"46125","OBJECT_TYPE":"PAYLOAD","APOAPSIS":"548.604","MEAN_MOTION":"15.06392939","GP_ID":"184973719","CENTER_NAME":"EARTH","MEAN_MOTION_DOT":"-0.00001127","REV_AT_EPOCH":"6118","SEMIMAJOR_AXIS":"6925.370","CLASSIFICATION_TYPE":"U","DECAY_DATE":null,"TLE_LINE2":"2 46125  53.0535  87.7444 0001977  87.5254 272.5962 15.06392939 61186","EPHEMERIS_TYPE":"0","PERIOD":"95.593","TIME_SYSTEM":"UTC","RA_OF_ASC_NODE":"87.7444","TLE_LINE1":"1 46125U 20057J   21261.62282667 -.00001127  00000-0 -56765-4 0  9999","MEAN_ELEMENT_THEORY":"SGP4","MEAN_ANOMALY":"272.5962"},{"OBJECT_NAME":"STARLINK-1619","ECCENTRICITY":"0.00018600","ELEMENT_SET_NO":"999","MEAN_MOTION_DDOT":"0.0000000000000","BSTAR":"0.00005375300000","ARG_OF_PERICENTER":"85.1531","OBJECT_ID":"2020-057K","PERIAPSIS":"545.960","EPOCH":"2021-09-18T19:06:20.988000","SITE":"AFETR","FILE":"3118781","NORAD_CAT_ID":"46126","OBJECT_TYPE":"PAYLOAD","INCLINATION":"53.0563","LAUNCH_DATE":"2020-08-18","COUNTRY_CODE":"US","RCS_SIZE":"LARGE","REF_FRAME":"TEME","TIME_SYSTEM":"UTC","PERIOD":"95.593","RA_OF_ASC_NODE":"86.7837","TLE_LINE1":"1 46126U 20057K   21261.79607625  .00000519  00000-0  53753-4 0  9999","MEAN_ANOMALY":"274.9670","MEAN_ELEMENT_THEORY":"SGP4","MEAN_MOTION":"15.06388632","APOAPSIS":"548.537","CENTER_NAME":"EARTH","GP_ID":"184973970","MEAN_MOTION_DOT":"0.00000519","SEMIMAJOR_AXIS":"6925.383","REV_AT_EPOCH":"5995","DECAY_DATE":null,"CLASSIFICATION_TYPE":"U","EPHEMERIS_TYPE":"0","TLE_LINE2":"2 46126  53.0563  86.7837 0001860  85.1531 274.9670 15.06388632 59955"},{"MEAN_ELEMENT_THEORY":"SGP4","MEAN_ANOMALY":"262.1303","TLE_LINE1":"1 46127U 20057L   21261.72051352  .00002710  00000-0  20077-3 0  9990","RA_OF_ASC_NODE":"67.3097","PERIOD":"95.593","TIME_SYSTEM":"UTC","EPHEMERIS_TYPE":"0","TLE_LINE2":"2 46127  53.0566  67.3097 0001480  97.9854 262.1303 15.06392550 60216","CLASSIFICATION_TYPE":"U","DECAY_DATE":null,"SEMIMAJOR_AXIS":"6925.371","REV_AT_EPOCH":"6021","MEAN_MOTION_DOT":"0.00002710","CENTER_NAME":"EARTH","GP_ID":"184974721","APOAPSIS":"548.261","MEAN_MOTION":"15.06392550","OBJECT_TYPE":"PAYLOAD","FILE":"3118781","NORAD_CAT_ID":"46127","EPOCH":"2021-09-18T17:17:32.368128","SITE":"AFETR","PERIAPSIS":"546.211","OBJECT_ID":"2020-057L","MEAN_MOTION_DDOT":"0.0000000000000","BSTAR":"0.00020077000000","ARG_OF_PERICENTER":"97.9854","ELEMENT_SET_NO":"999","ECCENTRICITY":"0.00014800","OBJECT_NAME":"STARLINK-1621","RCS_SIZE":"LARGE","REF_FRAME":"TEME","COUNTRY_CODE":"US","LAUNCH_DATE":"2020-08-18","INCLINATION":"53.0566"},{"MEAN_MOTION_DOT":"0.00000681","SEMIMAJOR_AXIS":"6925.365","REV_AT_EPOCH":"6049","MEAN_MOTION":"15.06394528","APOAPSIS":"548.421","CENTER_NAME":"EARTH","GP_ID":"184972968","TLE_LINE2":"2 46128  53.0563  47.4820 0001719 102.0014 258.1168 15.06394528 60499","EPHEMERIS_TYPE":"0","DECAY_DATE":null,"CLASSIFICATION_TYPE":"U","TIME_SYSTEM":"UTC","PERIOD":"95.592","RA_OF_ASC_NODE":"47.4820","MEAN_ANOMALY":"258.1168","MEAN_ELEMENT_THEORY":"SGP4","TLE_LINE1":"1 46128U 20057M   21261.68180729  .00000681  00000-0  64598-4 0  9999","INCLINATION":"53.0563","REF_FRAME":"TEME","RCS_SIZE":"LARGE","LAUNCH_DATE":"2020-08-18","COUNTRY_CODE":"US","ELEMENT_SET_NO":"999","BSTAR":"0.00006459800000","MEAN_MOTION_DDOT":"0.0000000000000","ARG_OF_PERICENTER":"102.0014","OBJECT_NAME":"STARLINK-1622","ECCENTRICITY":"0.00017190","FILE":"3118781","NORAD_CAT_ID":"46128","OBJECT_TYPE":"PAYLOAD","OBJECT_ID":"2020-057M","PERIAPSIS":"546.040","EPOCH":"2021-09-18T16:21:48.149856","SITE":"AFETR"}];
